OBJECT_NAME,OBJECT_ID,EPOCH,MEAN_MOTION,ECCENTRICITY,INCLINATION,RA_OF_ASC_NODE,ARG_OF_PERICENTER,MEAN_ANOMALY,EPHEMERIS_TYPE,CLASSIFICATION_TYPE,NORAD_CAT_ID,ELEMENT_SET_NO,REV_AT_EPOCH,BSTAR,MEAN_MOTION_DOT,MEAN_MOTION_DDOT
STARLINK-2021,2021-009BJ,2026-06-11T18:00:02.000160,15.94658504,.0010325,53.0351,226.0853,1.3516,299.1194,0,U,47604,999,604,.8732E-3,.33995E-2,.56443E-4
TJS-6,2021-010A,2026-06-10T19:16:23.238336,1.00277302,.00036447,0.2680,264.4395,214.2589,248.1189,0,U,47613,999,1974,0,.62E-6,0
STARLINK-1609,2021-012B,2026-06-11T15:55:07.921632,15.45938674,.0001907,53.1585,342.4650,188.5862,171.5113,0,U,47621,999,29456,.15108E-2,.75029E-3,0
STARLINK-1655,2021-012D,2026-06-11T18:00:02.000160,15.95901881,.0002595,53.0280,216.6702,27.0452,339.2229,0,U,47623,999,604,.88171E-3,.365467E-2,.6459E-4
STARLINK-1704,2021-012F,2026-06-11T15:28:27.092928,15.58322600,.0003845,53.0479,331.3928,174.7357,185.3696,0,U,47625,999,29468,.11096E-2,.86145E-3,0
STARLINK-1972,2021-012H,2026-06-11T11:21:29.637216,15.64017390,.000365,53.0456,231.0462,331.9445,28.1372,0,U,47627,999,29605,.99594E-3,.9645E-3,0
STARLINK-1973,2021-012J,2026-06-11T15:51:24.060960,15.31710189,.0001211,53.1604,347.8541,83.0434,277.0706,0,U,47628,999,29448,.10125E-3,.2779E-4,0
STARLINK-1983,2021-012L,2026-06-11T15:46:29.341920,15.31691928,.0001401,53.1606,332.4443,95.7882,264.3279,0,U,47630,999,29467,-.99083E-4,-.3438E-4,0
STARLINK-1992,2021-012N,2026-06-11T12:51:24.799680,15.31725406,.00013,53.1605,256.1405,89.9181,270.1970,0,U,47632,999,29573,.28438E-3,.8476E-4,0
STARLINK-2015,2021-012U,2026-06-11T13:11:19.450752,15.35530309,.0004856,53.1563,255.3453,329.7534,30.3188,0,U,47638,999,29574,.1225E-2,.42783E-3,0
STARLINK-2019,2021-012X,2026-06-11T18:00:02.000160,15.80193910,.0008228,53.0370,198.6634,4.7872,117.9470,0,U,47641,999,601,.38817E-3,.74371E-3,0
STARLINK-2031,2021-012AE,2026-06-11T16:20:01.959072,15.31716755,.000115,53.1602,332.2959,84.5750,275.5382,0,U,47648,999,29470,.88331E-4,.2378E-4,0
STARLINK-2032,2021-012AF,2026-06-11T18:00:02.000160,15.88656180,.0009695,53.0326,265.0328,357.8396,241.1095,0,U,47649,999,603,.93449E-3,.265597E-2,.36455E-4
STARLINK-2033,2021-012AG,2026-06-11T16:40:06.001824,15.40996447,.0002893,53.1504,328.8873,160.9599,199.1515,0,U,47650,999,29473,.13356E-2,.55916E-3,0
STARLINK-2036,2021-012AJ,2026-06-11T18:00:02.000160,15.61659941,.0001,53.1592,334.0755,57.8853,288.6457,0,U,47652,999,596,.15975E-2,.142124E-2,0
STARLINK-2039,2021-012AM,2026-06-11T16:04:49.561248,15.31720553,.0001004,53.1596,347.8638,96.3220,263.7896,0,U,47655,999,29448,.15136E-3,.4337E-4,0
STARLINK-2040,2021-012AN,2026-06-11T16:13:18.986016,15.31717132,.000112,53.1615,332.3053,74.9549,285.1576,0,U,47656,999,29469,.3463E-4,.71E-5,0
STARLINK-2041,2021-012AP,2026-06-11T15:44:13.394112,15.77695985,.0004588,53.1545,325.2591,285.9372,74.1143,0,U,47657,999,29479,.71078E-3,.122596E-2,0
STARLINK-2065,2021-012BE,2026-06-11T12:42:54.105696,16.28069238,.001264,53.1308,255.7283,322.6078,37.4084,0,U,47672,999,29574,.10177E-2,.4071501E-1,.12068E-4
STARLINK-2083,2021-012BJ,2026-06-11T18:00:02.000160,15.79867209,.0008122,53.0405,177.6835,23.9101,205.4314,0,U,47676,999,586,.11817E-3,.21678E-3,0
YAOGAN-31 03A,2021-014A,2026-06-11T17:46:01.252128,13.45448839,.0176665,63.4030,211.8477,0.5836,359.5365,0,U,47691,999,26004,-.35432E-4,-.113E-5,0
YAOGAN-31 03B,2021-014C,2026-06-11T17:45:59.183712,13.45448237,.0176861,63.4011,212.6479,0.9073,359.2241,0,U,47693,999,25994,-.43121E-4,-.118E-5,0
YAOGAN-31 03C,2021-014E,2026-06-11T17:45:41.480352,13.45448021,.0176771,63.4019,211.6985,0.8723,359.2578,0,U,47695,999,25999,-.33101E-4,-.112E-5,0
AMAZONIA 1,2021-015A,2026-06-11T16:08:42.143136,14.40816137,.0002586,98.4313,235.4042,192.5470,167.5654,0,U,47699,999,27785,.64919E-4,.164E-5,0
ARKTIKA-M 1,2021-016A,2026-06-09T12:22:37.726752,2.00625436,.7285674,63.2417,58.7595,269.8905,14.6803,0,U,47719,999,3863,0,-.149E-5,0
STARLINK-2068,2021-017A,2026-06-11T14:21:48.678048,15.31706755,.0001332,53.1598,114.1575,85.6893,274.4260,0,U,47722,999,29246,.10866E-3,.3009E-4,0
STARLINK-2107,2021-017B,2026-06-10T23:32:58.977024,15.31718533,.00011543,53.1615,52.7261,103.6563,256.4567,0,U,47723,999,29323,.13501416E-3,.3829E-4,0
STARLINK-2131,2021-017G,2026-06-11T14:38:22.812000,15.47208276,.0006971,53.0706,119.9928,57.4410,302.7270,0,U,47728,999,29236,.13179E-2,.68328E-3,0
STARLINK-2140,2021-017J,2026-06-11T03:59:50.448768,15.31688065,.00013689,53.1592,142.1302,85.9674,274.1484,0,U,47730,999,29197,.20224278E-4,.262E-5,0
STARLINK-2141,2021-017K,2026-06-11T18:00:02.000160,15.83929474,.0001906,53.1521,107.8912,154.5250,145.6668,0,U,47731,999,593,.99827E-3,.232783E-2,0
