STARLINK-2021           
1 47604U 21009BJ  26162.75002315  .00339950  56443-4  87320-3 0  9991
2 47604  53.0351 226.0853 0010325   1.3516 299.1194 15.94658504  6045
TJS-6                   
1 47613U 21010A   26161.80304674  .00000062  00000+0  00000+0 0  9999
2 47613   0.2680 264.4395 0003644 214.2589 248.1189  1.00277302 19746
STARLINK-1609           
1 47621U 21012B   26162.66328613  .00075029  00000+0  15108-2 0  9997
2 47621  53.1585 342.4650 0001907 188.5862 171.5113 15.45938674294565
STARLINK-1655           
1 47623U 21012D   26162.75002315  .00365467  64590-4  88171-3 0  9995
2 47623  53.0280 216.6702 0002595  27.0452 339.2229 15.95901881  6044
STARLINK-1704           
1 47625U 21012F   26162.64475802  .00086145  00000+0  11096-2 0  9995
2 47625  53.0479 331.3928 0003845 174.7357 185.3696 15.58322600294686
STARLINK-1972           
1 47627U 21012H   26162.47325969  .00096450  00000+0  99594-3 0  9996
2 47627  53.0456 231.0462 0003650 331.9445  28.1372 15.64017390296053
STARLINK-1973           
1 47628U 21012J   26162.66069515  .00002779  00000+0  10125-3 0  9994
2 47628  53.1604 347.8541 0001211  83.0434 277.0706 15.31710189294489
STARLINK-1983           
1 47630U 21012L   26162.65728405 -.00003438  00000+0 -99083-4 0  9992
2 47630  53.1606 332.4443 0001401  95.7882 264.3279 15.31691928294677
STARLINK-1992           
1 47632U 21012N   26162.53570370  .00008476  00000+0  28438-3 0  9997
2 47632  53.1605 256.1405 0001300  89.9181 270.1970 15.31725406295733
STARLINK-2015           
1 47638U 21012U   26162.54953068  .00042783  00000+0  12250-2 0  9996
2 47638  53.1563 255.3453 0004856 329.7534  30.3188 15.35530309295740
STARLINK-2019           
1 47641U 21012X   26162.75002315  .00074371  00000+0  38817-3 0  9999
2 47641  53.0370 198.6634 0008228   4.7872 117.9470 15.80193910  6010
STARLINK-2031           
1 47648U 21012AE  26162.68057823  .00002378  00000+0  88331-4 0  9997
2 47648  53.1602 332.2959 0001150  84.5750 275.5382 15.31716755294702
STARLINK-2032           
1 47649U 21012AF  26162.75002315  .00265597  36455-4  93449-3 0  9999
2 47649  53.0326 265.0328 0009695 357.8396 241.1095 15.88656180  6036
STARLINK-2033           
1 47650U 21012AG  26162.69451391  .00055916  00000+0  13356-2 0  9998
2 47650  53.1504 328.8873 0002893 160.9599 199.1515 15.40996447294737
STARLINK-2036           
1 47652U 21012AJ  26162.75002315  .00142124  00000+0  15975-2 0  9992
2 47652  53.1592 334.0755 0001000  57.8853 288.6457 15.61659941  5962
STARLINK-2039           
1 47655U 21012AM  26162.67001807  .00004337  00000+0  15136-3 0  9994
2 47655  53.1596 347.8638 0001004  96.3220 263.7896 15.31720553294484
STARLINK-2040           
1 47656U 21012AN  26162.67591419  .00000710  00000+0  34630-4 0  9990
2 47656  53.1615 332.3053 0001120  74.9549 285.1576 15.31717132294697
STARLINK-2041           
1 47657U 21012AP  26162.65571058  .00122596  00000+0  71078-3 0  9999
2 47657  53.1545 325.2591 0004588 285.9372  74.1143 15.77695985294795
STARLINK-2065           
1 47672U 21012BE  26162.52979289  .04071501  12068-4  10177-2 0  9997
2 47672  53.1308 255.7283 0012640 322.6078  37.4084 16.28069238295749
STARLINK-2083           
1 47676U 21012BJ  26162.75002315  .00021678  00000+0  11817-3 0  9990
2 47676  53.0405 177.6835 0008122  23.9101 205.4314 15.79867209  5867
YAOGAN-31 03A           
1 47691U 21014A   26162.74029227 -.00000113  00000+0 -35432-4 0  9992
2 47691  63.4030 211.8477 0176665   0.5836 359.5365 13.45448839260045
YAOGAN-31 03B           
1 47693U 21014C   26162.74026833 -.00000118  00000+0 -43121-4 0  9993
2 47693  63.4011 212.6479 0176861   0.9073 359.2241 13.45448237259941
YAOGAN-31 03C           
1 47695U 21014E   26162.74006343 -.00000112  00000+0 -33101-4 0  9990
2 47695  63.4019 211.6985 0176771   0.8723 359.2578 13.45448021259992
AMAZONIA 1              
1 47699U 21015A   26162.67270999  .00000164  00000+0  64919-4 0  9993
2 47699  98.4313 235.4042 0002586 192.5470 167.5654 14.40816137277852
ARKTIKA-M 1             
1 47719U 21016A   26160.51571443 -.00000149  00000+0  00000+0 0  9996
2 47719  63.2417  58.7595 7285674 269.8905  14.6803  2.00625436 38630
STARLINK-2068           
1 47722U 21017A   26162.59848007  .00003009  00000+0  10866-3 0  9996
2 47722  53.1598 114.1575 0001332  85.6893 274.4260 15.31706755292465
STARLINK-2107           
1 47723U 21017B   26161.98123816  .00003829  00000+0  13501-3 0  9992
2 47723  53.1615  52.7261 0001154 103.6563 256.4567 15.31718533293235
STARLINK-2131           
1 47728U 21017G   26162.60998625  .00068328  00000+0  13179-2 0  9990
2 47728  53.0706 119.9928 0006971  57.4410 302.7270 15.47208276292369
STARLINK-2140           
1 47730U 21017J   26162.16655612  .00000262  00000+0  20224-4 0  9994
2 47730  53.1592 142.1302 0001368  85.9674 274.1484 15.31688065291979
STARLINK-2141           
1 47731U 21017K   26162.75002315  .00232783  00000+0  99827-3 0  9995
2 47731  53.1521 107.8912 0001906 154.5250 145.6668 15.83929474  5932
